GLOBALSTAR M045         
1 25676U 99019A   25150.82220639 -.00000045  00000+0  42547-3 0  9993
2 25676  51.9990 354.7637 0000967 112.9423 259.6456 12.27063155191268
GLOBALSTAR M019         
1 25677U 99019B   25150.42278559 -.00000011  00000+0  82699-3 0  9999
2 25677  51.9859 125.0151 0001368 297.0095 234.6993 12.13876836182980
GLOBALSTAR M044         
1 25678U 99019C   25150.96983509 -.00000038  00000+0  63281-3 0  9992
2 25678  51.9979  72.7017 0006652  10.2971  70.4282 11.90250897169273
GLOBALSTAR M042         
1 25679U 99019D   25150.58511280 -.00000099  00000+0 -66420-4 0  9991
2 25679  52.0003 100.6429 0002706 271.0810 259.5591 12.22083175183107
GLOBALSTAR M025         
1 25770U 99031A   25150.87958485 -.00000057  00000+0  33066-3 0  9993
2 25770  51.9787 199.3670 0001686 135.0621  35.2515 11.22558324479761
GLOBALSTAR M049         
1 25771U 99031B   25150.91187588 -.00000038  00000+0  93619-3 0  9996
2 25771  51.9866 233.1880 0002273 337.4468  22.6228 11.12116043115507
GLOBALSTAR M047         
1 25772U 99031C   25150.92934205 -.00000050  00000+0  54725-3 0  9993
2 25772  51.9820 231.7661 0016748 231.8976 128.0320 11.31928415469154
GLOBALSTAR M052         
1 25773U 99031D   25150.82491839 -.00000085  00000+0 -65411-3 0  9997
2 25773  51.9891 342.3022 0003146 133.3493 240.0551 11.15059441476572
